ONEWEB-0229             
1 48779U 21045N   25019.90295883 -.00000023  00000+0 -94863-4 0  9998
2 48779  87.9083   1.3951 0001625  87.9866 272.1450 13.15548219176924
ONEWEB-0228             
1 48780U 21045P   25019.93544868  .00000194  00000+0  48037-3 0  9991
2 48780  87.9079   1.3669 0001663  88.5450 271.5871 13.15548275176848
ONEWEB-0232             
1 48781U 21045Q   25019.91088750  .00000052  00000+0  10319-3 0  9998
2 48781  87.9073   1.3754 0001735  87.3880 272.7449 13.15547428178285
ONEWEB-0231             
1 48782U 21045R   25019.88870362 -.00000047  00000+0 -15827-3 0  9998
2 48782  87.9069   1.4429 0001615  94.0286 266.1029 13.15548124177995
ONEWEB-0234             
1 48783U 21045S   25019.90851205  .00000037  00000+0  64294-4 0  9997
2 48783  87.9083   1.3812 0002984  81.0851 279.0617 13.15547765178123
ONEWEB-0238             
1 48784U 21045T   25019.93860221  .00000178  00000+0  43820-3 0  9996
2 48784  87.9082   1.3917 0001906  84.6345 275.5003 13.15548147176896
ONEWEB-0240             
1 48785U 21045U   25019.94812459  .00000126  00000+0  30044-3 0  9995
2 48785  87.9081   1.3561 0001910  98.7889 261.3458 13.15549138176927
ONEWEB-0246             
1 48786U 21045V   25019.94257132  .00000182  00000+0  44844-3 0  9992
2 48786  87.9085   1.3650 0001615  87.8185 272.3130 13.15548008176790
